{
  "norad_id": 63215,
  "name": "TEVEL2-6",
  "history": [
    {
      "epoch": "2026-03-28T16:00:46.387584Z",
      "apogee_km": 474.2134577442257,
      "perigee_km": 468.2859984697234,
      "latitude_deg": 4.82799567735337e-05,
      "longitude_deg": -82.26584950822279,
      "height_km": 472.81919333776705,
      "semi_major_axis_km": 6849.386728106974,
      "eccentricity": 0.0004327,
      "inclination_deg": 97.3996,
      "raan_deg": 344.0118,
      "arg_perigee_deg": 58.9221,
      "mean_anomaly_deg": 301.2445,
      "mean_motion_rev_day": 15.31529019
    },
    {
      "epoch": "2026-03-29T04:33:26.432928Z",
      "apogee_km": 474.0846169022507,
      "perigee_km": 468.22984019568776,
      "latitude_deg": 4.5713224353359405e-05,
      "longitude_deg": 89.57381264555336,
      "height_km": 472.6992160726471,
      "semi_major_axis_km": 6849.294228548969,
      "eccentricity": 0.0004274,
      "inclination_deg": 97.3997,
      "raan_deg": 344.5335,
      "arg_perigee_deg": 57.8547,
      "mean_anomaly_deg": 302.3109,
      "mean_motion_rev_day": 15.31560044
    },
    {
      "epoch": "2026-03-29T23:22:24.942720Z",
      "apogee_km": 473.88691637233387,
      "perigee_km": 468.18155673228466,
      "latitude_deg": 3.70286455852692e-05,
      "longitude_deg": 167.33976732504428,
      "height_km": 472.5755700605231,
      "semi_major_axis_km": 6849.171236552309,
      "eccentricity": 0.0004165,
      "inclination_deg": 97.3997,
      "raan_deg": 345.316,
      "arg_perigee_deg": 56.8836,
      "mean_anomaly_deg": 303.2805,
      "mean_motion_rev_day": 15.31601298
    }
  ]
}